METEOSAT-10 (MSG-3)     
1 38552U 12035B   24176.88406017  .00000000  00000+0  00000+0 0  9996
2 38552   2.9820  61.0550 0000645 336.2438 194.5897  1.00267859 43612
METOP-B                 
1 38771U 12049A   24176.91593806  .00000174  00000+0  99531-4 0  9995
2 38771  98.6275 233.9660 0001535  89.6948 270.4406 14.21442037610651
INSAT-3D                
1 39216U 13038B   24176.76715987 -.00000148  00000+0  00000+0 0  9998
2 39216   0.0585 101.2308 0000596 138.0196  32.4124  1.00271519 39839
FENGYUN 3C              
1 39260U 13052A   24176.86785890  .00000099  00000+0  70482-4 0  9994
2 39260  98.4281 176.0669 0010075 309.5442  50.4842 14.16220682556358
METEOR-M 2              
1 40069U 14037A   24176.91687729  .00000129  00000+0  78877-4 0  9995
2 40069  98.4361 170.8092 0005427 349.0367  11.0692 14.20983248516720
HIMAWARI-8              
1 40267U 14060A   24176.46855966 -.00000267  00000+0  00000+0 0  9993
2 40267   0.0591 119.9847 0000864   1.5170 100.9430  1.00269254 35517
FENGYUN 2G              
1 40367U 14090A   24176.83225102 -.00000296  00000+0  00000+0 0  9993
2 40367   3.8094  81.4586 0003125 108.8846 122.3969  1.00266575 34757
METEOSAT-11 (MSG-4)     
1 40732U 15034A   24171.59020498  .00000087  00000+0  00000+0 0  9994
2 40732   1.3918  69.1738 0001876 153.3473 267.8398  1.00279855   552
ELEKTRO-L 2             
1 41105U 15074A   24176.88118843 -.00000111  00000+0  00000+0 0  9991
2 41105   4.8607  79.3852 0000720 134.6053   2.2859  1.00270636 31266
INSAT-3DR               
1 41752U 16054A   24176.94250872 -.00000070  00000+0  00000+0 0  9998
2 41752   0.1219  93.4943 0010069 174.2399  59.1376  1.00271507 28573
HIMAWARI-9              
1 41836U 16064A   24176.85466101 -.00000267  00000+0  00000+0 0  9994
2 41836   0.0114 103.3947 0001069   1.2513 257.2770  1.00272451 27961
GOES 16                 
1 41866U 16071A   24176.79742090 -.00000240  00000+0  00000+0 0  9993
2 41866   0.0723 250.2959 0000510 196.4612  38.5431  1.00271998 27860
FENGYUN 4A              
1 41882U 16077A   24176.89771542 -.00000193  00000+0  00000+0 0  9999
2 41882   0.4771  85.7989 0008340 345.1680 252.6532  1.00267784 27685
CYGFM05                 
1 41884U 16078A   24176.59920770  .00008226  00000+0  30161-3 0  9997
2 41884  34.9548 254.1541 0012320 263.1275  96.8038 15.27167014417219
CYGFM04                 
1 41885U 16078B   24176.45175856  .00008076  00000+0  28822-3 0  9994
2 41885  34.9410 239.0877 0009752 284.2562  75.7070 15.28080684417287
CYGFM02                 
1 41886U 16078C   24176.60560876  .00008148  00000+0  28767-3 0  9990
2 41886  34.9512 240.3515 0012543 273.4585  86.4696 15.28401311417391
CYGFM01                 
1 41887U 16078D   24176.64794139  .00007781  00000+0  28697-3 0  9990
2 41887  34.9478 257.6974 0011971 252.1007 107.8402 15.26984488417156
CYGFM08                 
1 41888U 16078E   24176.59552318  .00008083  00000+0  28982-3 0  9999
2 41888  34.9485 246.1355 0012958 276.2467  83.6773 15.27893720417324
CYGFM07                 
1 41890U 16078G   24176.57120046  .00007977  00000+0  28361-3 0  9991
2 41890  34.9482 237.7226 0009601 284.1396  75.8252 15.28208041417318
CYGFM03                 
1 41891U 16078H   24176.47592224  .00008396  00000+0  29914-3 0  9993
2 41891  34.9494 239.5217 0010590 266.6592  93.2912 15.28120616417288
FENGYUN 3D              
1 43010U 17072A   24176.84910871  .00000125  00000+0  80976-4 0  9994
2 43010  98.9110 131.5487 0001210   5.3396 354.7792 14.19360683342509
NOAA 20 (JPSS-1)        
1 43013U 17073A   24176.88357609  .00000102  00000+0  69056-4 0  9997
2 43013  98.7065 114.6768 0001250 131.5900 228.5383 14.19599461341994
GOES 17                 
1 43226U 18022A   24176.88382604 -.00000083  00000+0  00000+0 0  9999
2 43226   0.0139 248.2124 0001057 238.2296   0.5431  1.00271095 23182
FENGYUN 2H              
1 43491U 18050A   24176.89977979 -.00000120  00000+0  00000+0 0  9992
2 43491   1.1622  87.2472 0001851  38.4734 190.9199  1.00268267 22193
METOP-C                 
1 43689U 18087A   24176.88408193  .00000168  00000+0  96872-4 0  9995
2 43689  98.7230 236.0708 0003065  78.4306 281.7215 14.21478313292215
GEO-KOMPSAT-2A          
1 43823U 18100A   24176.90943931 -.00000336  00000+0  00000+0 0  9999
2 43823   0.0506 128.9565 0002365 323.0735 277.1663  1.00270185 20387
METEOR-M2 2             
1 44387U 19038A   24176.88012721  .00000041  00000+0  37685-4 0  9993
2 44387  98.8269 146.1340 0000738   4.4356 355.6829 14.23895891258484
ARKTIKA-M 1             
1 47719U 21016A   24173.73801457  .00000180  00000+0  00000+0 0  9997
2 47719  63.1392 151.2542 6942940 268.6906  17.9282  2.00609316 24232
FENGYUN 3E              
1 49008U 21062A   24176.88815179  .00000019  00000+0  29520-4 0  9990
2 49008  98.7316 178.0635 0002163  43.1378 316.9967 14.19760182154083
GOES 18                 
1 51850U 22021A   24176.90049769  .00000105  00000+0  00000+0 0  9994
2 51850   0.0116 123.1722 0000581 345.9287 351.6010  1.00270397  8530
NOAA 21 (JPSS-2)        
1 54234U 22150A   24176.84863681  .00000121  00000+0  78195-4 0  9999
2 54234  98.7518 114.6526 0001858  99.9198 260.2188 14.19529441 84065
METEOSAT-12 (MTG-I1)    
1 54743U 22170C   24176.88397316  .00000001  00000+0  00000+0 0  9999
2 54743   0.5237  42.8069 0001845  49.1817 139.3377  1.00274487  5730
TIANMU-1 03             
1 55973U 23039A   24176.87847314  .00007780  00000+0  33272-3 0  9999
2 55973  97.4699 327.4529 0007644 138.6128 221.5689 15.23087204 70021
TIANMU-1 04             
1 55974U 23039B   24176.86187913  .00007538  00000+0  32376-3 0  9996
2 55974  97.4622 326.9893 0007771 138.9919 221.1903 15.22948159 70016
TIANMU-1 05             
1 55975U 23039C   24176.91119461  .00000148  00000+0  92922-5 0  9991
2 55975  97.4666 327.3709 0006434 151.6780 208.4807 15.22991845 70010
TIANMU-1 06             
1 55976U 23039D   24176.89487387  .00001343  00000+0  60068-4 0  9997
2 55976  97.4678 327.4733 0006424 154.4941 205.6614 15.23046935 70018
METEOR-M2 3             
1 57166U 23091A   24176.91533485  .00000036  00000+0  35113-4 0  9993
2 57166  98.7123 231.5196 0005135 104.8289 255.3459 14.23900452 51728
TIANMU-1 07             
1 57399U 23101A   24176.87797256  .00004976  00000+0  25326-3 0  9997
2 57399  97.3621 233.8153 0006119 147.7050 212.4559 15.17246267 51598
TIANMU-1 08             
1 57400U 23101B   24176.91324142  .00005798  00000+0  29429-3 0  9996
2 57400  97.3610 233.7217 0008167 156.4008 203.7601 15.17258190 51593
TIANMU-1 09             
1 57401U 23101C   24176.89623360  .00005817  00000+0  29539-3 0  9992
2 57401  97.3566 233.5429 0008707 153.0252 207.1435 15.17241010 51597
TIANMU-1 10             
1 57402U 23101D   24176.92846139  .00005400  00000+0  27450-3 0  9996
2 57402  97.3645 233.8573 0010860 153.5357 206.6433 15.17219887 51592
FENGYUN 3F              
1 57490U 23111A   24176.91260594  .00000099  00000+0  67315-4 0  9992
2 57490  98.7695 245.9728 0001947  83.9004 276.2394 14.19828941 46362
ARKTIKA-M 2             
1 58584U 23198A   24169.48278552  .00000150  00000+0  00000+0 0  9990
2 58584  63.2417 235.5556 6979408 269.9021  17.2518  2.00611967  3681
TIANMU-1 11             
1 58645U 23205A   24176.91211216  .00004386  00000+0  23671-3 0  9995
2 58645  97.4019 201.8024 0011924  27.0599 333.1253 15.15192744 27688
TIANMU-1 12             
1 58646U 23205B   24176.86141920  .00004878  00000+0  26271-3 0  9999
2 58646  97.4006 201.6831 0010210  21.5935 338.5726 15.15232511 27668
TIANMU-1 13             
1 58647U 23205C   24176.89414671  .00005338  00000+0  28724-3 0  9996
2 58647  97.4034 201.7118 0009629   6.8220 353.3142 15.15225764 27663
TIANMU-1 14             
1 58648U 23205D   24176.87799912  .00005421  00000+0  29157-3 0  9993
2 58648  97.3961 201.5535 0010108   7.0331 353.1042 15.15229548 27664
TIANMU-1 19             
1 58660U 23208A   24176.88527189  .00005305  00000+0  28595-3 0  9992
2 58660  97.4127 289.0830 0008452 346.9584  13.1429 15.15178101 27330
TIANMU-1 20             
1 58661U 23208B   24176.88479046  .00005360  00000+0  28242-3 0  9991
2 58661  97.4054 289.0582 0009496 356.9481   3.1692 15.15973091 27343
TIANMU-1 21             
1 58662U 23208C   24176.87325832  .00006246  00000+0  32028-3 0  9995
2 58662  97.4093 289.3195 0009127 357.0964   3.0215 15.16870014 27352
TIANMU-1 22             
1 58663U 23208D   24176.90184469  .00005673  00000+0  30581-3 0  9994
2 58663  97.4113 289.1734 0005188  17.5835 342.5576 15.15158017 27342
TIANMU-1 15             
1 58700U 24004A   24176.87635413  .00004665  00000+0  25211-3 0  9991
2 58700  97.4622 357.8381 0010563  34.2688 325.9224 15.15132357 25932
TIANMU-1 16             
1 58701U 24004B   24176.92511844  .00005315  00000+0  28645-3 0  9996
2 58701  97.4548 357.7590 0010653  39.2973 320.9030 15.15168051 25944
TIANMU-1 17             
1 58702U 24004C   24176.91015230  .00005334  00000+0  28779-3 0  9993
2 58702  97.4592 357.8778 0008397  36.5562 323.6242 15.15144088 25937
TIANMU-1 18             
1 58703U 24004D   24176.89324635  .00004629  00000+0  25008-3 0  9991
2 58703  97.4609 357.9347 0007409  28.8331 331.3309 15.15174093 25930
INSAT-3DS               
1 58990U 24033A   24171.63670715 -.00000142  00000+0  00000+0 0  9999
2 58990   0.0159 349.8168 0010402 105.1251 125.6022  1.00268037   992
METEOR-M2 4             
1 59051U 24039A   24176.87346363  .00000044  00000+0  39171-4 0  9990
2 59051  98.5978 138.5775 0008242 100.3570 259.8537 14.22233762 16587
STARLINK-31974          
1 59885U 24100A   24176.87650631  .00003037  00000+0  57579-4 0  9997
2 59885  42.9993  74.9276 0001989 264.8163  95.2470 15.50574961  5437
